GOES 10                 
1 24786U 97019A   24131.15972791 -.00000257  00000+0  00000+0 0  9998
2 24786  12.2201  26.3541 0028048 218.0259 358.7171  0.99125709 98446
